KUIPER-00268            
1 67790U 26030AC  26063.81172653  .00133435  00000+0  37066-2 0  9992
2 67790  51.8844 242.6324 0001970  25.3571 334.7511 15.35891779  4344
KUIPER-00270            
1 67791U 26030AD  26063.76501145  .00039069  00000+0  11576-2 0  9995
2 67791  51.8807 243.0558 0010081  43.2843 316.8932 15.34431905  4339
KUIPER-00274            
1 67792U 26030AE  26063.78979234  .00008606  00000+0  28936-3 0  9998
2 67792  51.8816 243.2199 0017389  55.7776 304.4853 15.31496167  4337
KUIPER-00275            
1 67793U 26030AF  26063.76242796  .00041464  00000+0  12249-2 0  9991
2 67793  51.8841 243.0483 0009109  39.7392 320.4259 15.34507480  4339
KUIPER-00276            
1 67794U 26030AG  26063.79379263  .00030822  00000+0  10038-2 0  9995
2 67794  51.8812 243.2443 0018767  53.3642 306.9065 15.31415792  4331
KUIPER-00279            
1 67795U 26030AH  26063.82103658  .00041831  00000+0  12093-2 0  9998
2 67795  51.8798 242.6823 0006727  34.7577 325.3847 15.35200123  4341
