[{"OBJECT_NAME":"KUIPER-00268","OBJECT_ID":"2026-030AC","EPOCH":"2026-03-04T19:28:53.172192","MEAN_MOTION":15.35891779,"ECCENTRICITY":0.000197,"INCLINATION":51.8844,"RA_OF_ASC_NODE":242.6324,"ARG_OF_PERICENTER":25.3571,"MEAN_ANOMALY":334.7511,"EPHEMERIS_TYPE":0,"CLASSIFICATION_TYPE":"U","NORAD_CAT_ID":67790,"ELEMENT_SET_NO":999,"REV_AT_EPOCH":434,"BSTAR":0.0037066,"MEAN_MOTION_DOT":0.00133435,"MEAN_MOTION_DDOT":0},{"OBJECT_NAME":"KUIPER-00270","OBJECT_ID":"2026-030AD","EPOCH":"2026-03-04T18:21:36.989280","MEAN_MOTION":15.34431905,"ECCENTRICITY":0.0010081,"INCLINATION":51.8807,"RA_OF_ASC_NODE":243.0558,"ARG_OF_PERICENTER":43.2843,"MEAN_ANOMALY":316.8932,"EPHEMERIS_TYPE":0,"CLASSIFICATION_TYPE":"U","NORAD_CAT_ID":67791,"ELEMENT_SET_NO":999,"REV_AT_EPOCH":433,"BSTAR":0.0011576,"MEAN_MOTION_DOT":0.00039069,"MEAN_MOTION_DDOT":0},{"OBJECT_NAME":"KUIPER-00274","OBJECT_ID":"2026-030AE","EPOCH":"2026-03-04T18:57:18.058176","MEAN_MOTION":15.31496167,"ECCENTRICITY":0.0017389,"INCLINATION":51.8816,"RA_OF_ASC_NODE":243.2199,"ARG_OF_PERICENTER":55.7776,"MEAN_ANOMALY":304.4853,"EPHEMERIS_TYPE":0,"CLASSIFICATION_TYPE":"U","NORAD_CAT_ID":67792,"ELEMENT_SET_NO":999,"REV_AT_EPOCH":433,"BSTAR":0.00028936,"MEAN_MOTION_DOT":8.606e-5,"MEAN_MOTION_DDOT":0},{"OBJECT_NAME":"KUIPER-00275","OBJECT_ID":"2026-030AF","EPOCH":"2026-03-04T18:17:53.775744","MEAN_MOTION":15.3450748,"ECCENTRICITY":0.0009109,"INCLINATION":51.8841,"RA_OF_ASC_NODE":243.0483,"ARG_OF_PERICENTER":39.7392,"MEAN_ANOMALY":320.4259,"EPHEMERIS_TYPE":0,"CLASSIFICATION_TYPE":"U","NORAD_CAT_ID":67793,"ELEMENT_SET_NO":999,"REV_AT_EPOCH":433,"BSTAR":0.0012249,"MEAN_MOTION_DOT":0.00041464,"MEAN_MOTION_DDOT":0},{"OBJECT_NAME":"KUIPER-00276","OBJECT_ID":"2026-030AG","EPOCH":"2026-03-04T19:03:03.683232","MEAN_MOTION":15.31415792,"ECCENTRICITY":0.0018767,"INCLINATION":51.8812,"RA_OF_ASC_NODE":243.2443,"ARG_OF_PERICENTER":53.3642,"MEAN_ANOMALY":306.9065,"EPHEMERIS_TYPE":0,"CLASSIFICATION_TYPE":"U","NORAD_CAT_ID":67794,"ELEMENT_SET_NO":999,"REV_AT_EPOCH":433,"BSTAR":0.0010038,"MEAN_MOTION_DOT":0.00030822,"MEAN_MOTION_DDOT":0},{"OBJECT_NAME":"KUIPER-00279","OBJECT_ID":"2026-030AH","EPOCH":"2026-03-04T19:42:17.560512","MEAN_MOTION":15.35200123,"ECCENTRICITY":0.0006727,"INCLINATION":51.8798,"RA_OF_ASC_NODE":242.6823,"ARG_OF_PERICENTER":34.7577,"MEAN_ANOMALY":325.3847,"EPHEMERIS_TYPE":0,"CLASSIFICATION_TYPE":"U","NORAD_CAT_ID":67795,"ELEMENT_SET_NO":999,"REV_AT_EPOCH":434,"BSTAR":0.0012093,"MEAN_MOTION_DOT":0.00041831,"MEAN_MOTION_DDOT":0}]
